[{"OBJECT_NAME":"STARLINK-5093","OBJECT_ID":"2023-058R","EPOCH":"2026-03-09T22:20:13.982496","MEAN_MOTION":15.01261708,"ECCENTRICITY":0.00017421,"INCLINATION":97.6039,"RA_OF_ASC_NODE":70.4031,"ARG_OF_PERICENTER":26.497,"MEAN_ANOMALY":333.6343,"EPHEMERIS_TYPE":0,"CLASSIFICATION_TYPE":"U","NORAD_CAT_ID":56332,"ELEMENT_SET_NO":999,"REV_AT_EPOCH":15816,"BSTAR":1.0624616e-5,"MEAN_MOTION_DOT":7.8e-7,"MEAN_MOTION_DDOT":0},{"OBJECT_NAME":"KORSAT-2","OBJECT_ID":"2024-247A","EPOCH":"2026-03-09T09:51:24.769440","MEAN_MOTION":14.99271316,"ECCENTRICITY":0.00097734,"INCLINATION":45.4085,"RA_OF_ASC_NODE":225.0391,"ARG_OF_PERICENTER":57.7708,"MEAN_ANOMALY":302.4117,"EPHEMERIS_TYPE":0,"CLASSIFICATION_TYPE":"U","NORAD_CAT_ID":62377,"ELEMENT_SET_NO":999,"REV_AT_EPOCH":6659,"BSTAR":0.00043497982,"MEAN_MOTION_DOT":5.163e-5,"MEAN_MOTION_DDOT":0}]
